[{"OBJECT_NAME":"STARLINK-36178","OBJECT_ID":"2025-293Y","EPOCH":"2026-03-09T18:53:06.730944","MEAN_MOTION":14.9836025,"ECCENTRICITY":0.00031364,"INCLINATION":70.0026,"RA_OF_ASC_NODE":94.1594,"ARG_OF_PERICENTER":269.3092,"MEAN_ANOMALY":90.7708,"EPHEMERIS_TYPE":0,"CLASSIFICATION_TYPE":"U","NORAD_CAT_ID":67025,"ELEMENT_SET_NO":999,"REV_AT_EPOCH":1490,"BSTAR":-0.00019394647,"MEAN_MOTION_DOT":-2.408e-5,"MEAN_MOTION_DDOT":0},{"OBJECT_NAME":"SL-16 DEB","OBJECT_ID":"1992-093LA","EPOCH":"2026-02-20T04:21:44.148672","MEAN_MOTION":14.94798833,"ECCENTRICITY":0.00217312,"INCLINATION":71.2188,"RA_OF_ASC_NODE":0.2564,"ARG_OF_PERICENTER":24.1632,"MEAN_ANOMALY":336.0549,"EPHEMERIS_TYPE":0,"CLASSIFICATION_TYPE":"U","NORAD_CAT_ID":39848,"ELEMENT_SET_NO":999,"REV_AT_EPOCH":60757,"BSTAR":0.0046757079,"MEAN_MOTION_DOT":0.00051467,"MEAN_MOTION_DDOT":0}]
